[
  {
    "OBJECT_NAME": "STARLINK-30880",
    "OBJECT_ID": "23171C",
    "EPOCH": "2025-11-08T18:21:32.614848",
    "MEAN_MOTION": 15.0253496,
    "ECCENTRICITY": 0.0001519,
    "INCLINATION": 43.0055,
    "RA_OF_ASC_NODE": 223.2146,
    "ARG_OF_PERICENTER": 270.6239,
    "MEAN_ANOMALY": 89.4429,
    "EPHEMERIS_TYPE": 0,
    "CLASSIFICATION_TYPE": "U",
    "NORAD_CAT_ID": 58232,
    "ELEMENT_SET_NO": 999,
    "REV_AT_EPOCH": 11153,
    "BSTAR": 0.0,
    "MEAN_MOTION_DOT": -2.85e-06,
    "MEAN_MOTION_DDOT": 0.0,
    "TLE_LINE1": "1 58232U 23171C   25312.76496082 -.00000285  00000+0 -59853-5 0  9990",
    "TLE_LINE2": "2 58232  43.0055 223.2146 0001519 270.6239  89.4429 15.02534960111536",
    "COMMENT": "Grouped by shell and plane from TLE"
  }
]